COSMOS 2361 [-]         
1 25590U 98076A   22300.21101370  .00000049  00000+0  36969-4 0  9992
2 25590  82.9304 108.7748 0031075 200.1386 334.0031 13.73031781194619
COSMOS 2378 [-]         
1 26818U 01023A   22300.13541411  .00000085  00000+0  73906-4 0  9999
2 26818  82.9240 126.6357 0033502 146.2312 214.0979 13.73978187 72391
COSMOS 2389 [-]         
1 27436U 02026A   22299.79146435  .00000037  00000+0  22435-4 0  9994
2 27436  82.9502  72.8079 0046557  10.9305  97.2708 13.74984891 24416
COSMOS 2398 [-]         
1 27818U 03023A   22300.24685509  .00000032  00000+0  17771-4 0  9991
2 27818  82.9501  34.4935 0032517  47.4695 312.9183 13.72219977971466
COSMOS 2407 [+]         
1 28380U 04028A   22300.18381146  .00000085  00000+0  71402-4 0  9994
2 28380  82.9616 338.9074 0039545  11.3361 348.8688 13.76124294917270
COSMOS 2414 [+]         
1 28521U 05002A   22300.48976418  .00000088  00000+0  60255-4 0  9996
2 28521  82.9488 328.4138 0040950 155.8020 204.5079 13.87671034899864
COSMOS 2429 [-]         
1 32052U 07038A   22299.79609204  .00000050  00000+0  36377-4 0  9995
2 32052  82.9767 105.5485 0038167 349.4800  10.5553 13.74972797758953
COSMOS 2454 [-]         
1 35635U 09039A   22300.05914969  .00000061  00000+0  36782-4 0  9999
2 35635  82.9536 314.8392 0020754 101.3266 269.3492 13.89698775672973
COSMOS 2463 [+]         
1 36519U 10017A   22300.12978344  .00000061  00000+0  50620-4 0  9991
2 36519  82.9588 146.1097 0035370 216.1232 263.1060 13.71483075625830
